#aV2007  9 18  0  0   .00000000      96 DD+AD WGS84 FIT  NGA
## 1445 172800.00000000   900.00000000 54361  .0000000000000
+   31     1  2  3  4  5  6  7  8  9 10 11 12 13 14 16 17 18
+         19 20 21 22 23 24 25 26 27 28 29 30 31 32  0  0  0
+          0  0  0  0  0  0  0  0  0  0  0  0  0  0  0  0  0
+          0  0  0  0  0  0  0  0  0  0  0  0  0  0  0  0  0
+          0  0  0  0  0  0  0  0  0  0  0  0  0  0  0  0  0
++         0  0  0  0  0  0  0  0  0  0  0  0  0  0  0  0  0
++         0  0  0  0  0  0  0  0  0  0  0  0  0  0  0  0  0
++         0  0  0  0  0  0  0  0  0  0  0  0  0  0  0  0  0
++         0  0  0  0  0  0  0  0  0  0  0  0  0  0  0  0  0
++         0  0  0  0  0  0  0  0  0  0  0  0  0  0  0  0  0
%c cc cc ccc ccc cccc cccc cccc cccc ccccc ccccc ccccc ccccc
%c cc cc ccc ccc cccc cccc cccc cccc ccccc ccccc ccccc ccccc
%f  0.0000000  0.000000000  0.00000000000  0.000000000000000
%f  0.0000000  0.000000000  0.00000000000  0.000000000000000
%i    0    0    0    0      0      0      0      0         0
%i    0    0    0    0      0      0      0      0         0
/*      NGA, ST. LOUIS,MO.                                  
/*   EPHEMERIS COMPUTED FROM  3 DAYS OF DATA                
/* CCCCCCCCCCCCCCCCCCCCCCCCCCCCCCCCCCCCCCCCCCCCCCCCCCCCCCCCC
/* CCCCCCCCCCCCCCCCCCCCCCCCCCCCCCCCCCCCCCCCCCCCCCCCCCCCCCCCC
*  2007  9 18 16 30   .00000000                                                 
P  1  16801.225588 -19585.710561  -5888.553021    153.433075                    
V  1  -2510.721508   7571.496192 -31298.611714       .024792                    
P  2 -14888.563817  12945.305829  17443.983989    137.411110                    
V  2 -22738.512424  -1628.243787 -18303.477505       .027837                    
P  3   9786.536791 -24477.684431   -924.322793    117.508601                    
V  3   4226.764545    809.906025  31162.243109       .053063                    
P  4 -24413.154664   6422.388891   8751.975388     -6.476602                    
V  4 -11140.059549  -2733.607087 -28477.563179      -.030149                    
P  5  16118.728150  21184.083366    832.202391    399.386937                    
V  5  -1904.796364   3059.033426 -31180.671706       .330007                    
P  6  13003.134108   9332.050887  21380.103018    245.009573                    
V  6 -12429.771415  23773.349229  -2872.231807      -.022508                    
P  7  14125.617957   7368.210041  21592.225891    -97.181647                    
V  7 -11553.819745  24093.913857   -715.537461       .245551                    
P  8 -26797.061579   -136.525561  -1068.903741   -123.251804                    
V  8  -1144.251369  -1865.399895  31821.429897      -.014801                    
P  9   7835.206343  14431.034198 -21526.384617     88.250810                    
V  9 -25794.348284   1896.151635  -8172.205650       .017196                    
P 10  -3537.345824  18957.215805  18004.351017    -70.465435                    
V 10 -12882.010252 -19366.784078  18057.622144      -.965235                    
P 11 -10914.104055 -14149.903752 -19834.576150     23.820638                    
V 11  24462.303023  -6075.315026  -8868.795524       .004886                    
P 12  11084.010031  23837.044372  -3948.923650    -56.571444                    
V 12  -4935.646395  -3008.970904 -31217.111069      -.012941                    
P 13 -11637.550900  -8564.049036  22180.973254    207.378367                    
V 13  14784.894787 -24164.096550  -1541.297351       .029461                    
P 14  18311.338131 -10231.081219 -16142.767607     42.193903                    
V 14  -9243.117835  18515.171410 -22189.676261       .023317                    
P 16   7916.284131 -14849.235426  20584.095049    176.347121                    
V 16  13860.628228  22021.837314  10751.926912       .022317                    
P 17 -18472.378485   8397.262147 -17046.512314     54.307756                    
V 17   9104.336281 -19825.734338 -19745.195969      -.011775                    
P 18  18403.368917  13925.444675 -13291.211918   -235.570209                    
V 18   6178.738258  16026.142206  24693.900867       .018254                    
P 19   4805.855585 -23054.728950 -12043.244385     66.019170                    
V 19  10554.356334 -11636.455591  26421.593114       .024921                    
P 20 -13404.492415 -22937.942946   -909.015650    -29.796769                    
V 20   3182.663589   -750.741781 -31482.266470      -.005692                    
P 21  24551.920950   6717.717567   8712.953318     78.202515                    
V 21 -10764.305643   2587.682644  28234.221591      -.002215                    
P 22  16762.481548    240.469629 -20449.549599    198.149084                    
V 22  11601.863167  23692.711463   9668.145877       .012402                    
P 23  -4634.314505 -18031.073401  18776.037146    202.537500                    
V 23  12956.590577 -20315.758736 -16469.274035       .038312                    
P 24  15301.543625  12928.860626  17492.484919     31.581755                    
V 24 -22006.914637   1131.157789  18911.361986       .029526                    
P 25 -20384.123037  -8338.209012  15099.541251    441.899166                    
V 25  18257.205292  -4091.618423  23089.319295       .097582                    
P 26  -6864.121577  23587.352814  -9789.096054     32.151527                    
V 26  -7829.677777   9187.460995  29495.173768       .133885                    
P 27 -24749.185369  -4624.643224   9436.466554    135.898703                    
V 27  10799.269299  -2957.623795  28673.874930       .024013                    
P 28 -17709.243500  -4250.215105 -19109.839060     -7.104268                    
V 28 -11214.365361 -22246.899771  14730.921522      -.006539                    
P 29 -10028.320379  23918.051434  -4444.346760      5.698488                    
V 29  -4831.814069   4106.707102  31978.490932       .001417                    
P 30  17876.593720  18355.098060   6876.467356     46.099588                    
V 30   2429.724237   9340.248828 -29727.585050       .012802                    
P 31  22304.511483  -8660.379435  11803.731962      9.118479                    
V 31  14695.520730   1884.876968 -26765.507944      -.012405                    
P 32  10284.260087 -11651.585763 -21088.874388     64.526749                    
V 32  12772.515915  24731.311053  -7144.537602       .164903                    
EOF
